OBJECT_NAME,OBJECT_ID,EPOCH,MEAN_MOTION,ECCENTRICITY,INCLINATION,RA_OF_ASC_NODE,ARG_OF_PERICENTER,MEAN_ANOMALY,EPHEMERIS_TYPE,CLASSIFICATION_TYPE,NORAD_CAT_ID,ELEMENT_SET_NO,REV_AT_EPOCH,BSTAR,MEAN_MOTION_DOT,MEAN_MOTION_DDOT
DUCHIFAT-1,2014-033M,2026-07-18T16:08:38.936832,15.71696006,.00031533,98.0415,263.4357,232.8599,127.2374,0,U,40021,999,66068,.72508872E-3,.94147E-3,0
NANOSATC-BR1,2014-033Q,2026-07-18T19:39:21.241440,15.32398569,.00051169,98.0707,235.0319,87.9134,272.2692,0,U,40024,999,65882,.3004868E-3,.9316E-4,0
QB50P1,2014-033R,2026-07-18T07:39:18.658080,15.18693321,.0010487,98.0968,212.6585,115.5699,244.6619,0,U,40025,999,65775,.21985551E-3,.4488E-4,0
DTUSAT-2,2014-033W,2026-07-18T17:43:15.370176,15.15377493,.00095443,98.0881,199.4794,121.6142,238.6021,0,U,40030,999,65746,.19027531E-3,.3519E-4,0
QB50P2,2014-033Y,2026-07-18T19:05:38.214816,15.15534284,.00092284,98.0769,198.6548,73.8940,286.3306,0,U,40032,999,65745,.19123875E-3,.3553E-4,0
PERSEUS-M1,2014-033AF,2026-07-18T19:31:59.435040,14.95722381,.00111566,97.9655,144.4689,184.3661,175.7464,0,U,40039,999,65536,.5438067E-4,.545E-5,0
POLYITAN-1,2014-033AJ,2026-07-18T00:58:49.731168,15.34281566,.00076502,98.0931,228.2449,55.8959,304.3007,0,U,40042,999,65832,.33244666E-3,.10956E-3,0
TIGRISAT,2014-033AK,2026-07-18T09:01:41.702304,14.85254459,.00483621,97.7869,348.6813,333.7651,26.1115,0,U,40043,999,65025,.85548866E-4,.693E-5,0
CANX-4,2014-034C,2026-07-18T21:36:05.457888,14.81314671,.00113763,98.3078,76.3714,269.5009,90.4899,0,U,40055,999,64922,.57094705E-4,.388E-5,0
CANX-5,2014-034D,2026-07-18T15:04:13.642752,14.81331659,.0011373,98.3080,76.1348,270.7559,89.2349,0,U,40056,999,63999,.53855E-4,.363E-5,0
GONETS-M 10,2014-036C,2026-07-18T22:41:57.274656,12.42946043,.00228989,82.5120,287.9503,74.6807,285.6802,0,U,40063,999,54619,-.50423132E-3,-.6E-6,0
METEOR-M 2,2014-037A,2026-07-18T21:23:37.251168,14.21470198,.00049064,98.5139,174.5107,314.3539,45.7237,0,U,40069,999,62382,.20840544E-4,.3E-7,0
DX1,2014-037C,2026-07-18T22:09:55.775808,14.90069399,.00074254,98.3889,163.5564,157.8309,202.3229,0,U,40071,999,65083,.13836514E-3,.1274E-4,0
UKUBE-1,2014-037F,2026-07-18T07:14:20.651424,15.13977056,.00031905,98.4246,205.8544,82.4039,277.7553,0,U,40074,999,65326,.25747607E-3,.4593E-4,0
GAOFEN-2,2014-049A,2026-07-18T22:23:13.819776,14.80929233,.00084911,98.0090,264.1073,124.5338,235.6677,0,U,40118,999,64393,.36885637E-4,.232E-5,0
BRITE-PL2 (HEWELIUSZ),2014-049B,2026-07-18T20:06:50.404896,14.94691922,.0013981,97.9121,312.0880,10.3613,349.7893,0,U,40119,999,64617,.66529727E-4,.663E-5,0
CBERS 4,2014-079A,2026-07-18T23:03:16.754976,14.35516441,.00006413,98.3510,255.7926,62.0167,298.1084,0,U,40336,999,60851,.50363E-7,-.42E-6,0
SMAP,2015-003A,2026-07-18T22:37:53.565312,14.63390896,.00016221,98.1285,206.5891,93.5950,266.5438,0,U,40376,999,61226,.4302559E-4,.176E-5,0
GONETS-M 11,2015-020A,2026-07-18T23:10:52.673088,12.42878825,.00153059,82.4869,11.1848,294.4837,65.4646,0,U,40552,999,51268,.4120954E-3,.67E-6,0
GONETS-M 12,2015-020B,2026-07-18T22:32:12.950592,12.42892022,.00142198,82.4901,12.3337,278.2476,81.6991,0,U,40553,999,51267,-.20716106E-3,-.19E-6,0
GONETS-M 13,2015-020C,2026-07-18T21:54:47.471616,12.42871868,.00128132,82.4865,10.9558,262.0717,97.8909,0,U,40554,999,51264,.9060532E-5,.11E-6,0
DMC3-FM1,2015-032A,2026-07-18T22:13:20.104032,14.85772619,.00045181,97.6419,63.8499,324.5541,35.5374,0,U,40715,999,59462,.11297508E-3,.93E-5,0
DMC3-FM2,2015-032B,2026-07-18T22:44:53.988576,14.85776172,.00052075,97.6471,65.4664,329.3282,30.7629,0,U,40716,999,59462,.7265358E-5,.12E-6,0
DMC3-FM3,2015-032C,2026-07-18T21:41:50.670816,14.85763782,.00044594,97.6521,67.1972,330.9435,29.1532,0,U,40717,999,59462,.19125741E-4,.115E-5,0
CARBONITE 1 (CBNT-1),2015-032D,2026-07-18T21:08:37.766688,14.83674472,.00141555,97.6524,16.6238,184.5148,175.5941,0,U,40718,999,59404,.96481284E-4,.747E-5,0
LILACSAT-2,2015-049K,2026-07-18T20:46:44.470272,15.52440772,.00085722,97.4623,237.9281,130.7952,229.4046,0,U,40908,999,60066,.17436439E-3,.10571E-3,0
